ONEWEB-0291             
1 49081U 21075G   25155.22895897  .00000100  00000+0  22433-3 0  9992
2 49081  87.9061  81.1037 0002286  79.2880 280.8509 13.17651987184820
ONEWEB-0293             
1 49082U 21075H   25154.49491219  .00000052  00000+0  99688-4 0  9994
2 49082  87.9069  81.2818 0002146  82.4929 277.6446 13.17651746184740
ONEWEB-0294             
1 49083U 21075J   25155.19308727  .00000423  00000+0  11406-2 0  9996
2 49083  87.8884  65.8408 0002416  85.8323 274.3081 13.12443218185987
ONEWEB-0295             
1 49084U 21075K   25155.17748633  .00000081  00000+0  17533-3 0  9997
2 49084  87.9084  81.1377 0002337  74.1555 285.9834 13.17648398184778
ONEWEB-0296             
1 49085U 21075L   25154.48747458 -.00000361  00000+0 -10393-2 0  9994
2 49085  87.8886  65.9895 0002595  76.0877 284.0540 13.12443643184907
ONEWEB-0297             
1 49086U 21075M   25154.51830702  .00000545  00000+0  14800-2 0  9993
2 49086  87.8894  66.0167 0001980  76.5744 283.5606 13.12443236186509
ONEWEB-0298             
1 49087U 21075N   25154.49842559  .00000106  00000+0  23899-3 0  9996
2 49087  87.9068  81.2787 0001991  73.1002 287.0348 13.17649291183753
ONEWEB-0299             
1 49088U 21075P   25154.49997160  .00000055  00000+0  10883-3 0  9998
2 49088  87.9063  81.2326 0002068  73.5521 286.5838 13.17649555183733
